start=new Date('2022-08-08T00:00:00.000Z').valueOf();
sats=[{"FILE":"3531552","TLE_LINE1":"1 46355U 20062AG  22219.48714080  .00001207  00000-0  99905-4 0  9997","ARG_OF_PERICENTER":"76.8008","COUNTRY_CODE":"US","OBJECT_NAME":"STARLINK-1661","INCLINATION":"53.0559","DECAY_DATE":null,"REV_AT_EPOCH":"10683","RCS_SIZE":"LARGE","SEMIMAJOR_AXIS":"6925.352","MEAN_MOTION_DOT":"0.00001207","MEAN_MOTION_DDOT":"0.0000000000000","OBJECT_ID":"2020-062AG","CLASSIFICATION_TYPE":"U","MEAN_ELEMENT_THEORY":"SGP4","PERIAPSIS":"546.053","EPOCH":"2022-08-07T11:41:28.965120","ECCENTRICITY":"0.00016810","GP_ID":"209790289","MEAN_ANOMALY":"283.3169","REF_FRAME":"TEME","TLE_LINE2":"2 46355  53.0559 138.3583 0001681  76.8008 283.3169 15.06398978106834","TIME_SYSTEM":"UTC","MEAN_MOTION":"15.06398978","LAUNCH_DATE":"2020-09-03","CENTER_NAME":"EARTH","PERIOD":"95.592","APOAPSIS":"548.381","NORAD_CAT_ID":"46355","OBJECT_TYPE":"PAYLOAD","EPHEMERIS_TYPE":"0","RA_OF_ASC_NODE":"138.3583","SITE":"AFETR","BSTAR":"0.00009990500000","ELEMENT_SET_NO":"999"},{"ELEMENT_SET_NO":"999","EPHEMERIS_TYPE":"0","RA_OF_ASC_NODE":"138.2952","BSTAR":"0.00010888000000","SITE":"AFETR","NORAD_CAT_ID":"46356","APOAPSIS":"548.412","OBJECT_TYPE":"PAYLOAD","LAUNCH_DATE":"2020-09-03","PERIOD":"95.592","CENTER_NAME":"EARTH","TIME_SYSTEM":"UTC","MEAN_MOTION":"15.06403670","REF_FRAME":"TEME","TLE_LINE2":"2 46356  53.0565 138.2952 0001747  81.2024 278.9163 15.06403670106832","EPOCH":"2022-08-07T11:56:02.577120","ECCENTRICITY":"0.00017470","GP_ID":"209791040","MEAN_ANOMALY":"278.9163","MEAN_ELEMENT_THEORY":"SGP4","PERIAPSIS":"545.992","MEAN_MOTION_DDOT":"0.0000000000000","OBJECT_ID":"2020-062AH","CLASSIFICATION_TYPE":"U","RCS_SIZE":"LARGE","SEMIMAJOR_AXIS":"6925.337","MEAN_MOTION_DOT":"0.00001341","DECAY_DATE":null,"REV_AT_EPOCH":"10683","ARG_OF_PERICENTER":"81.2024","COUNTRY_CODE":"US","INCLINATION":"53.0565","OBJECT_NAME":"STARLINK-1665","FILE":"3531552","TLE_LINE1":"1 46356U 20062AH  22219.49725205  .00001341  00000-0  10888-3 0  9991"},{"RCS_SIZE":"LARGE","MEAN_MOTION_DOT":"0.00002077","SEMIMAJOR_AXIS":"6925.341","OBJECT_ID":"2020-062AJ","MEAN_MOTION_DDOT":"0.0000000000000","CLASSIFICATION_TYPE":"U","PERIAPSIS":"546.036","MEAN_ELEMENT_THEORY":"SGP4","EPOCH":"2022-08-07T21:27:59.189184","MEAN_ANOMALY":"285.9523","GP_ID":"209791786","ECCENTRICITY":"0.00016900","TLE_LINE1":"1 46357U 20062AJ  22219.89443506  .00002077  00000-0  15831-3 0  9997","FILE":"3531552","OBJECT_NAME":"STARLINK-1666","COUNTRY_CODE":"US","INCLINATION":"53.0559","ARG_OF_PERICENTER":"74.1652","REV_AT_EPOCH":"10717","DECAY_DATE":null,"LAUNCH_DATE":"2020-09-03","CENTER_NAME":"EARTH","PERIOD":"95.592","NORAD_CAT_ID":"46357","APOAPSIS":"548.376","OBJECT_TYPE":"PAYLOAD","RA_OF_ASC_NODE":"116.5110","EPHEMERIS_TYPE":"0","BSTAR":"0.00015831000000","SITE":"AFETR","ELEMENT_SET_NO":"999","REF_FRAME":"TEME","TLE_LINE2":"2 46357  53.0559 116.5110 0001690  74.1652 285.9523 15.06402480107170","MEAN_MOTION":"15.06402480","TIME_SYSTEM":"UTC"},{"MEAN_ELEMENT_THEORY":"SGP4","PERIAPSIS":"545.819","GP_ID":"209761121","ECCENTRICITY":"0.00020580","MEAN_ANOMALY":"285.0824","EPOCH":"2022-08-07T05:03:24.392736","MEAN_MOTION_DOT":"-0.00000584","SEMIMAJOR_AXIS":"6925.379","RCS_SIZE":"LARGE","CLASSIFICATION_TYPE":"U","MEAN_MOTION_DDOT":"0.0000000000000","OBJECT_ID":"2020-062AK","ARG_OF_PERICENTER":"75.0393","OBJECT_NAME":"STARLINK-1690","COUNTRY_CODE":"US","INCLINATION":"53.0556","DECAY_DATE":null,"REV_AT_EPOCH":"10679","FILE":"3531314","TLE_LINE1":"1 46358U 20062AK  22219.21069899 -.00000584  00000-0 -20284-4 0  9995","SITE":"AFETR","BSTAR":"-0.00002028400000","EPHEMERIS_TYPE":"0","RA_OF_ASC_NODE":"139.5880","ELEMENT_SET_NO":"999","PERIOD":"95.593","CENTER_NAME":"EARTH","LAUNCH_DATE":"2020-09-03","OBJECT_TYPE":"PAYLOAD","NORAD_CAT_ID":"46358","APOAPSIS":"548.670","TIME_SYSTEM":"UTC","MEAN_MOTION":"15.06389936","TLE_LINE2":"2 46358  53.0556 139.5880 0002058  75.0393 285.0824 15.06389936106790","REF_FRAME":"TEME"},{"REV_AT_EPOCH":"10751","DECAY_DATE":null,"COUNTRY_CODE":"US","OBJECT_NAME":"STARLINK-1707","INCLINATION":"53.0561","ARG_OF_PERICENTER":"70.1716","TLE_LINE1":"1 46359U 20062AL  22219.85434573  .00000987  00000-0  85141-4 0  9999","FILE":"3531552","GP_ID":"209790790","ECCENTRICITY":"0.00017440","MEAN_ANOMALY":"289.9460","EPOCH":"2022-08-07T20:30:15.471072","PERIAPSIS":"545.991","MEAN_ELEMENT_THEORY":"SGP4","CLASSIFICATION_TYPE":"U","OBJECT_ID":"2020-062AL","MEAN_MOTION_DDOT":"0.0000000000000","MEAN_MOTION_DOT":"0.00000987","SEMIMAJOR_AXIS":"6925.333","RCS_SIZE":"LARGE","MEAN_MOTION":"15.06404972","TIME_SYSTEM":"UTC","TLE_LINE2":"2 46359  53.0561  91.7131 0001744  70.1716 289.9460 15.06404972107519","REF_FRAME":"TEME","ELEMENT_SET_NO":"999","SITE":"AFETR","BSTAR":"0.00008514100000","RA_OF_ASC_NODE":"91.7131","EPHEMERIS_TYPE":"0","OBJECT_TYPE":"PAYLOAD","NORAD_CAT_ID":"46359","APOAPSIS":"548.406","PERIOD":"95.592","CENTER_NAME":"EARTH","LAUNCH_DATE":"2020-09-03"},{"TLE_LINE1":"1 46360U 20062AM  22219.87646961 -.00000101  00000-0  12139-4 0  9995","FILE":"3531552","OBJECT_NAME":"STARLINK-1713","COUNTRY_CODE":"US","INCLINATION":"53.0553","ARG_OF_PERICENTER":"70.8135","REV_AT_EPOCH":"10752","DECAY_DATE":null,"SEMIMAJOR_AXIS":"6925.358","MEAN_MOTION_DOT":"-0.00000101","RCS_SIZE":"LARGE","CLASSIFICATION_TYPE":"U","OBJECT_ID":"2020-062AM","MEAN_MOTION_DDOT":"0.0000000000000","PERIAPSIS":"546.235","MEAN_ELEMENT_THEORY":"SGP4","ECCENTRICITY":"0.00014260","GP_ID":"209790540","MEAN_ANOMALY":"289.3009","EPOCH":"2022-08-07T21:02:06.974304","TLE_LINE2":"2 46360  53.0553  91.6099 0001426  70.8135 289.3009 15.06396918107527","REF_FRAME":"TEME","MEAN_MOTION":"15.06396918","TIME_SYSTEM":"UTC","CENTER_NAME":"EARTH","PERIOD":"95.592","LAUNCH_DATE":"2020-09-03","OBJECT_TYPE":"PAYLOAD","APOAPSIS":"548.211","NORAD_CAT_ID":"46360","SITE":"AFETR","BSTAR":"0.00001213900000","RA_OF_ASC_NODE":"91.6099","EPHEMERIS_TYPE":"0","ELEMENT_SET_NO":"999"},{"TIME_SYSTEM":"UTC","MEAN_MOTION":"15.06401513","REF_FRAME":"TEME","TLE_LINE2":"2 46361  53.0538  91.7194 0001440  90.0586 270.0568 15.06401513107512","ELEMENT_SET_NO":"999","EPHEMERIS_TYPE":"0","RA_OF_ASC_NODE":"91.7194","BSTAR":"0.00011676000000","SITE":"AFETR","APOAPSIS":"548.206","NORAD_CAT_ID":"46361","OBJECT_TYPE":"PAYLOAD","LAUNCH_DATE":"2020-09-03","PERIOD":"95.592","CENTER_NAME":"EARTH","DECAY_DATE":null,"REV_AT_EPOCH":"10751","ARG_OF_PERICENTER":"90.0586","COUNTRY_CODE":"US","OBJECT_NAME":"STARLINK-1722","INCLINATION":"53.0538","FILE":"3531552","TLE_LINE1":"1 46361U 20062AN  22219.84603154  .00001458  00000-0  11676-3 0  9999","EPOCH":"2022-08-07T20:18:17.125056","GP_ID":"209791287","ECCENTRICITY":"0.00014400","MEAN_ANOMALY":"270.0568","MEAN_ELEMENT_THEORY":"SGP4","PERIAPSIS":"546.212","MEAN_MOTION_DDOT":"0.0000000000000","OBJECT_ID":"2020-062AN","CLASSIFICATION_TYPE":"U","RCS_SIZE":"LARGE","SEMIMAJOR_AXIS":"6925.344","MEAN_MOTION_DOT":"0.00001458"},{"GP_ID":"209791526","MEAN_ANOMALY":"295.7342","ECCENTRICITY":"0.00015680","EPOCH":"2022-08-07T21:23:20.819616","PERIAPSIS":"546.123","MEAN_ELEMENT_THEORY":"SGP4","CLASSIFICATION_TYPE":"U","OBJECT_ID":"2020-062AP","MEAN_MOTION_DDOT":"0.0000000000000","MEAN_MOTION_DOT":"-0.00000013","SEMIMAJOR_AXIS":"6925.344","RCS_SIZE":"LARGE","REV_AT_EPOCH":"10752","DECAY_DATE":null,"COUNTRY_CODE":"US","INCLINATION":"53.0544","OBJECT_NAME":"STARLINK-1726","ARG_OF_PERICENTER":"64.3809","TLE_LINE1":"1 46362U 20062AP  22219.89121319 -.00000013  00000-0  18045-4 0  9998","FILE":"3531552","ELEMENT_SET_NO":"999","BSTAR":"0.00001804500000","SITE":"AFETR","RA_OF_ASC_NODE":"91.5389","EPHEMERIS_TYPE":"0","OBJECT_TYPE":"PAYLOAD","NORAD_CAT_ID":"46362","APOAPSIS":"548.295","PERIOD":"95.592","CENTER_NAME":"EARTH","LAUNCH_DATE":"2020-09-03","MEAN_MOTION":"15.06401407","TIME_SYSTEM":"UTC","TLE_LINE2":"2 46362  53.0544  91.5389 0001568  64.3809 295.7342 15.06401407107524","REF_FRAME":"TEME"},{"LAUNCH_DATE":"2020-09-03","PERIOD":"95.592","CENTER_NAME":"EARTH","APOAPSIS":"548.369","NORAD_CAT_ID":"46363","OBJECT_TYPE":"PAYLOAD","RA_OF_ASC_NODE":"91.5494","EPHEMERIS_TYPE":"0","BSTAR":"0.00025780000000","SITE":"AFETR","ELEMENT_SET_NO":"999","REF_FRAME":"TEME","TLE_LINE2":"2 46363  53.0539  91.5494 0001704  70.6238 289.4935 15.06408013107522","TIME_SYSTEM":"UTC","MEAN_MOTION":"15.06408013","RCS_SIZE":"LARGE","MEAN_MOTION_DOT":"0.00003561","SEMIMAJOR_AXIS":"6925.324","MEAN_MOTION_DDOT":"0.0000000000000","OBJECT_ID":"2020-062AQ","CLASSIFICATION_TYPE":"U","MEAN_ELEMENT_THEORY":"SGP4","PERIAPSIS":"546.009","EPOCH":"2022-08-07T21:11:21.830784","GP_ID":"209790290","MEAN_ANOMALY":"289.4935","ECCENTRICITY":"0.00017040","FILE":"3531552","TLE_LINE1":"1 46363U 20062AQ  22219.88289156  .00003561  00000-0  25780-3 0  9995","ARG_OF_PERICENTER":"70.6238","OBJECT_NAME":"STARLINK-1739","COUNTRY_CODE":"US","INCLINATION":"53.0539","DECAY_DATE":null,"REV_AT_EPOCH":"10752"},{"OBJECT_TYPE":"PAYLOAD","NORAD_CAT_ID":"46364","APOAPSIS":"548.288","PERIOD":"95.592","CENTER_NAME":"EARTH","LAUNCH_DATE":"2020-09-03","ELEMENT_SET_NO":"999","SITE":"AFETR","BSTAR":"-0.00002658900000","EPHEMERIS_TYPE":"0","RA_OF_ASC_NODE":"72.0511","TLE_LINE2":"2 46364  53.0549  72.0511 0001526 121.2789 238.8349 15.06394404107798","REF_FRAME":"TEME","MEAN_MOTION":"15.06394404","TIME_SYSTEM":"UTC","CLASSIFICATION_TYPE":"U","OBJECT_ID":"2020-062AR","MEAN_MOTION_DDOT":"0.0000000000000","SEMIMAJOR_AXIS":"6925.366","MEAN_MOTION_DOT":"-0.00000677","RCS_SIZE":"LARGE","GP_ID":"209791041","MEAN_ANOMALY":"238.8349","ECCENTRICITY":"0.00015260","EPOCH":"2022-08-07T21:15:28.277280","PERIAPSIS":"546.174","MEAN_ELEMENT_THEORY":"SGP4","TLE_LINE1":"1 46364U 20062AR  22219.88574395 -.00000677  00000-0 -26589-4 0  9994","FILE":"3531552","REV_AT_EPOCH":"10779","DECAY_DATE":null,"COUNTRY_CODE":"US","INCLINATION":"53.0549","OBJECT_NAME":"STARLINK-1763","ARG_OF_PERICENTER":"121.2789"}];
